[
    {
        "Altitude(m)": 604969.089238037,
        "Argument of Periapsis(deg)": 0.0,
        "Eccentricity": 0.0,
        "Inclination(deg)": 60.0,
        "Latitude(deg)": -0.0927455736570481,
        "Longitude(deg)": -85.02247238198152,
        "Mean Anomaly(deg)": 0.0,
        "RAAN(deg)": 15.0,
        "Satellite Name": "Test1 66",
        "Satellite Number": 66,
        "Semi-Major Axis(m)": 6980739.136638005,
        "Time(s)": 0
    },
    {
        "Altitude(m)": 604900.028141857,
        "Argument of Periapsis(deg)": 0.00010418945913296404,
        "Eccentricity": 0.0,
        "Inclination(deg)": 60.0,
        "Latitude(deg)": 0.4476803609246994,
        "Longitude(deg)": -84.75434943214215,
        "Mean Anomaly(deg)": 0.6201061454618307,
        "RAAN(deg)": 14.999579950860259,
        "Satellite Name": "Test1 66",
        "Satellite Number": 66,
        "Semi-Major Axis(m)": 6980739.136638005,
        "Time(s)": 10
    },
    {
        "Altitude(m)": 604834.1951142458,
        "Argument of Periapsis(deg)": 0.0002083789182659281,
        "Eccentricity": 0.0,
        "Inclination(deg)": 60.0,
        "Latitude(deg)": 0.9881030716374289,
        "Longitude(deg)": -84.48617507866142,
        "Mean Anomaly(deg)": 1.2402122909236615,
        "RAAN(deg)": 14.999159901720514,
        "Satellite Name": "Test1 66",
        "Satellite Number": 66,
        "Semi-Major Axis(m)": 6980739.136638005,
        "Time(s)": 20
    },
    {
        "Altitude(m)": 604771.5965344796,
        "Argument of Periapsis(deg)": 0.00031256837739889213,
        "Eccentricity": 0.0,
        "Inclination(deg)": 60.0,
        "Latitude(deg)": 1.5285054724655598,
        "Longitude(deg)": -84.21789493218635,
        "Mean Anomaly(deg)": 1.8603184363854923,
        "RAAN(deg)": 14.99873985258077,
        "Satellite Name": "Test1 66",
        "Satellite Number": 66,
        "Semi-Major Axis(m)": 6980739.136638005,
        "Time(s)": 30
    },
    {
        "Altitude(m)": 604712.2372519453,
        "Argument of Periapsis(deg)": 0.0004167578365318562,
        "Eccentricity": 0.0,
        "Inclination(deg)": 60.0,
        "Latitude(deg)": 2.06887045593312,
        "Longitude(deg)": -83.94945403482788,
        "Mean Anomaly(deg)": 2.480424581847323,
        "RAAN(deg)": 14.998319803441028,
        "Satellite Name": "Test1 66",
        "Satellite Number": 66,
        "Semi-Major Axis(m)": 6980739.136638005,
        "Time(s)": 40
    },
    {
        "Altitude(m)": 604656.1205865645,
        "Argument of Periapsis(deg)": 0.0005209472956648203,
        "Eccentricity": 0.0,
        "Inclination(deg)": 60.0,
        "Latitude(deg)": 2.609180883192648,
        "Longitude(deg)": -83.68079783672572,
        "Mean Anomaly(deg)": 3.1005307273091542,
        "RAAN(deg)": 14.997899754301287,
        "Satellite Name": "Test1 66",
        "Satellite Number": 66,
        "Semi-Major Axis(m)": 6980739.136638005,
        "Time(s)": 50
    },
    {
        "Altitude(m)": 604603.2483300183,
        "Argument of Periapsis(deg)": 0.0006251367547977843,
        "Eccentricity": 0.0,
        "Inclination(deg)": 60.0,
        "Latitude(deg)": 3.149419574074222,
        "Longitude(deg)": -83.41187165965124,
        "Mean Anomaly(deg)": 3.7206368727709846,
        "RAAN(deg)": 14.997479705161544,
        "Satellite Name": "Test1 66",
        "Satellite Number": 66,
        "Semi-Major Axis(m)": 6980739.136638005,
        "Time(s)": 60
    },
    {
        "Altitude(m)": 604553.6207476753,
        "Argument of Periapsis(deg)": 0.0007293262139307483,
        "Eccentricity": 0.0,
        "Inclination(deg)": 60.0,
        "Latitude(deg)": 3.6895692970812974,
        "Longitude(deg)": -83.14262016049243,
        "Mean Anomaly(deg)": 4.340743018232809,
        "RAAN(deg)": 14.997059656021802,
        "Satellite Name": "Test1 66",
        "Satellite Number": 66,
        "Semi-Major Axis(m)": 6980739.136638005,
        "Time(s)": 70
    },
    {
        "Altitude(m)": 604507.2365813139,
        "Argument of Periapsis(deg)": 0.0008335156730637124,
        "Eccentricity": 0.0,
        "Inclination(deg)": 60.0,
        "Latitude(deg)": 4.229612759319817,
        "Longitude(deg)": -82.87298830746451,
        "Mean Anomaly(deg)": 4.96084916369464,
        "RAAN(deg)": 14.996639606882056,
        "Satellite Name": "Test1 66",
        "Satellite Number": 66,
        "Semi-Major Axis(m)": 6980739.136638005,
        "Time(s)": 80
    },
    {
        "Altitude(m)": 604464.0930525616,
        "Argument of Periapsis(deg)": 0.0009377051321966765,
        "Eccentricity": 0.0,
        "Inclination(deg)": 60.0,
        "Latitude(deg)": 4.769532596346953,
        "Longitude(deg)": -82.60292084327244,
        "Mean Anomaly(deg)": 5.5809553091564705,
        "RAAN(deg)": 14.996219557742315,
        "Satellite Name": "Test1 66",
        "Satellite Number": 66,
        "Semi-Major Axis(m)": 6980739.136638005,
        "Time(s)": 90
    },
    {
        "Altitude(m)": 604424.1858671036,
        "Argument of Periapsis(deg)": 0.0010418945913296407,
        "Eccentricity": 0.0,
        "Inclination(deg)": 60.0,
        "Latitude(deg)": 5.309311361925832,
        "Longitude(deg)": -82.33236174806771,
        "Mean Anomaly(deg)": 6.2010614546183005,
        "RAAN(deg)": 14.995799508602571,
        "Satellite Name": "Test1 66",
        "Satellite Number": 66,
        "Semi-Major Axis(m)": 6980739.136638005,
        "Time(s)": 100
    },
    {
        "Altitude(m)": 604387.5092196212,
        "Argument of Periapsis(deg)": 0.0011460840504626045,
        "Eccentricity": 0.0,
        "Inclination(deg)": 60.0,
        "Latitude(deg)": 5.8489315176722245,
        "Longitude(deg)": -82.06125521504488,
        "Mean Anomaly(deg)": 6.821167600080132,
        "RAAN(deg)": 14.99537945946283,
        "Satellite Name": "Test1 66",
        "Satellite Number": 66,
        "Semi-Major Axis(m)": 6980739.136638005,
        "Time(s)": 110
    },
    {
        "Altitude(m)": 604354.0557994868,
        "Argument of Periapsis(deg)": 0.0012502735095955685,
        "Eccentricity": 0.0,
        "Inclination(deg)": 60.0,
        "Latitude(deg)": 6.388375422579258,
        "Longitude(deg)": -81.78954511290151,
        "Mean Anomaly(deg)": 7.441273745541963,
        "RAAN(deg)": 14.994959410323089,
        "Satellite Name": "Test1 66",
        "Satellite Number": 66,
        "Semi-Major Axis(m)": 6980739.136638005,
        "Time(s)": 120
    },
    {
        "Altitude(m)": 604323.816797189,
        "Argument of Periapsis(deg)": 0.0013544629687285324,
        "Eccentricity": 0.0,
        "Inclination(deg)": 60.0,
        "Latitude(deg)": 6.92762532240589,
        "Longitude(deg)": -81.51717444800606,
        "Mean Anomaly(deg)": 8.061379891003794,
        "RAAN(deg)": 14.994539361183342,
        "Satellite Name": "Test1 66",
        "Satellite Number": 66,
        "Semi-Major Axis(m)": 6980739.136638005,
        "Time(s)": 130
    },
    {
        "Altitude(m)": 604296.781911485,
        "Argument of Periapsis(deg)": 0.0014586524278614966,
        "Eccentricity": 0.0,
        "Inclination(deg)": 60.0,
        "Latitude(deg)": 7.466663338914564,
        "Longitude(deg)": -81.24408633911673,
        "Mean Anomaly(deg)": 8.681486036465625,
        "RAAN(deg)": 14.994119312043603,
        "Satellite Name": "Test1 66",
        "Satellite Number": 66,
        "Semi-Major Axis(m)": 6980739.136638005,
        "Time(s)": 140
    },
    {
        "Altitude(m)": 604272.9393573046,
        "Argument of Periapsis(deg)": 0.0015628418869944607,
        "Eccentricity": 0.0,
        "Inclination(deg)": 60.0,
        "Latitude(deg)": 8.00547145894348,
        "Longitude(deg)": -80.97022347887639,
        "Mean Anomaly(deg)": 9.301592181927456,
        "RAAN(deg)": 14.993699262903858,
        "Satellite Name": "Test1 66",
        "Satellite Number": 66,
        "Semi-Major Axis(m)": 6980739.136638005,
        "Time(s)": 150
    },
    {
        "Altitude(m)": 604252.2758743594,
        "Argument of Periapsis(deg)": 0.0016670313461274247,
        "Eccentricity": 0.0,
        "Inclination(deg)": 60.0,
        "Latitude(deg)": 8.544031523298537,
        "Longitude(deg)": -80.69552759492679,
        "Mean Anomaly(deg)": 9.921698327389283,
        "RAAN(deg)": 14.993279213764117,
        "Satellite Name": "Test1 66",
        "Satellite Number": 66,
        "Semi-Major Axis(m)": 6980739.136638005,
        "Time(s)": 160
    },
    {
        "Altitude(m)": 604234.7767364905,
        "Argument of Periapsis(deg)": 0.0017712208052603888,
        "Eccentricity": 0.0,
        "Inclination(deg)": 60.0,
        "Latitude(deg)": 9.082325215449476,
        "Longitude(deg)": -80.41994042348561,
        "Mean Anomaly(deg)": 10.541804472851116,
        "RAAN(deg)": 14.992859164624372,
        "Satellite Name": "Test1 66",
        "Satellite Number": 66,
        "Semi-Major Axis(m)": 6980739.136638005,
        "Time(s)": 170
    },
    {
        "Altitude(m)": 604220.425761717,
        "Argument of Periapsis(deg)": 0.001875410264393353,
        "Eccentricity": 0.0,
        "Inclination(deg)": 60.0,
        "Latitude(deg)": 9.62033405001497,
        "Longitude(deg)": -80.14340316961076,
        "Mean Anomaly(deg)": 11.161910618312948,
        "RAAN(deg)": 14.99243911548463,
        "Satellite Name": "Test1 66",
        "Satellite Number": 66,
        "Semi-Major Axis(m)": 6980739.136638005,
        "Time(s)": 180
    },
    {
        "Altitude(m)": 604209.2053229971,
        "Argument of Periapsis(deg)": 0.0019795997235263173,
        "Eccentricity": 0.0,
        "Inclination(deg)": 60.0,
        "Latitude(deg)": 10.158039361020693,
        "Longitude(deg)": -79.86585596699479,
        "Mean Anomaly(deg)": 11.782016763774772,
        "RAAN(deg)": 14.992019066344888,
        "Satellite Name": "Test1 66",
        "Satellite Number": 66,
        "Semi-Major Axis(m)": 6980739.136638005,
        "Time(s)": 190
    }
]